CTC2_L_00230016-03
1 46537U 23329KF  26037.47792824  .00000000  00000+0  00000-0 0  9994
2 46537  80.0000 180.0000 0000000   0.0000   0.0000 14.24551582    12
CTC2_L_00230016-04
1 46538U 23923XB  26037.47792824  .00000000  00000+0  00000-0 0  9995
2 46538  80.0000 180.0000 0000000   0.0000  90.0000 14.24551582    12
CTC2_L_00230017-01
1 46539U 22717SB  26037.47792824  .00000000  00000+0  00000-0 0  9996
2 46539  80.0000 192.0000 0000000   0.0000 192.0000 14.24551582    19
CTC2_L_00230017-02
1 46540U 25356YU  26037.47792824  .00000000  00000+0  00000-0 0  9990
2 46540  80.0000 192.0000 0000000   0.0000 282.0000 14.24551582    11
CTC2_L_00230017-03
1 46541U 25901JM  26037.47792824  .00000000  00000+0  00000-0 0  9997
2 46541  80.0000 192.0000 0000000   0.0000  12.0000 14.24551582    13
CTC2_L_00230017-04
1 46542U 26081IZ  26037.47792824  .00000000  00000+0  00000-0 0  9998
2 46542  80.0000 192.0000 0000000   0.0000 102.0000 14.24551582    14
CTC2_L_00230018-01
1 46543U 25722ED  26037.47792824  .00000000  00000+0  00000-0 0  9990
2 46543  80.0000 204.0000 0000000   0.0000 204.0000 14.24551582    12
CTC2_L_00230018-02
1 46544U 26751UT  26037.47792824  .00000000  00000+0  00000-0 0  9994
2 46544  80.0000 204.0000 0000000   0.0000 294.0000 14.24551582    12
CTC2_L_00230018-03
1 46545U 22455EF  26037.47792824  .00000000  00000+0  00000-0 0  9992
2 46545  80.0000 204.0000 0000000   0.0000  24.0000 14.24551582    14
CTC2_L_00230018-04
1 46546U 26556XI  26037.47792824  .00000000  00000+0  00000-0 0  9999
2 46546  80.0000 204.0000 0000000   0.0000 114.0000 14.24551582    15
CTC2_L_00230019-01
1 46547U 24836NU  26037.47792824  .00000000  00000+0  00000-0 0  9999
2 46547  80.0000 216.0000 0000000   0.0000 216.0000 14.24551582    12
CTC2_L_00230019-02
1 46548U 22567MV  26037.47792824  .00000000  00000+0  00000-0 0  9999
2 46548  80.0000 216.0000 0000000   0.0000 306.0000 14.24551582    13
CTC2_L_00230019-03
1 46549U 24208TE  26037.47792824  .00000000  00000+0  00000-0 0  9994
2 46549  80.0000 216.0000 0000000   0.0000  36.0000 14.24551582    14
CTC2_L_00230019-04
1 46550U 26942JZ  26037.47792824  .00000000  00000+0  00000-0 0  9993
2 46550  80.0000 216.0000 0000000   0.0000 126.0000 14.24551582    16
CTC2_L_00230020-01
1 46551U 23226LC  26037.47792824  .00000000  00000+0  00000-0 0  9996
2 46551  80.0000 228.0000 0000000   0.0000 228.0000 14.24551582    13
CTC2_L_00230020-02
1 46552U 25894NZ  26037.47792824  .00000000  00000+0  00000-0 0  9990
2 46552  80.0000 228.0000 0000000   0.0000 318.0000 14.24551582    14
CTC2_L_00230020-03
1 46553U 25796XR  26037.47792824  .00000000  00000+0  00000-0 0  9992
2 46553  80.0000 228.0000 0000000   0.0000  48.0000 14.24551582    15
CTC2_L_00230020-04
1 46554U 24761AK  26037.47792824  .00000000  00000+0  00000-0 0  9994
2 46554  80.0000 228.0000 0000000   0.0000 138.0000 14.24551582    16
CTC2_L_00230021-01
1 46555U 22604CP  26037.47792824  .00000000  00000+0  00000-0 0  9999
2 46555  80.0000 240.0000 0000000   0.0000 240.0000 14.24551582    15
CTC2_L_00230021-02
1 46556U 24083AJ  26037.47792824  .00000000  00000+0  00000-0 0  9993
2 46556  80.0000 240.0000 0000000   0.0000 330.0000 14.24551582    16
CTC2_L_00230021-03
1 46557U 25375CR  26037.47792824  .00000000  00000+0  00000-0 0  9999
2 46557  80.0000 240.0000 0000000   0.0000  60.0000 14.24551582    17
CTC2_L_00230021-04
1 46558U 24192AC  26037.47792824  .00000000  00000+0  00000-0 0  9996
2 46558  80.0000 240.0000 0000000   0.0000 150.0000 14.24551582    18
CTC2_L_00230022-01
1 46559U 26271CP  26037.47792824  .00000000  00000+0  00000-0 0  9997
2 46559  80.0000 252.0000 0000000   0.0000 252.0000 14.24551582    15
CTC2_L_00230022-02
1 46560U 25818ML  26037.47792824  .00000000  00000+0  00000-0 0  9995
2 46560  80.0000 252.0000 0000000   0.0000 342.0000 14.24551582    17
CTC2_L_00230022-03
1 46561U 24991WN  26037.47792824  .00000000  00000+0  00000-0 0  9997
2 46561  80.0000 252.0000 0000000   0.0000  72.0000 14.24551582    18
CTC2_L_00230022-04
1 46562U 25360NP  26037.47792824  .00000000  00000+0  00000-0 0  9999
2 46562  80.0000 252.0000 0000000   0.0000 162.0000 14.24551582    19
CTC2_L_00230023-01
1 46563U 26236RF  26037.47792824  .00000000  00000+0  00000-0 0  9993
2 46563  80.0000 264.0000 0000000   0.0000 264.0000 14.24551582    16
CTC2_L_00230023-02
1 46564U 23260DL  26037.47792824  .00000000  00000+0  00000-0 0  9998
2 46564  80.0000 264.0000 0000000   0.0000 354.0000 14.24551582    17
CTC2_L_00230023-03
1 46565U 23725PE  26037.47792824  .00000000  00000+0  00000-0 0  9995
2 46565  80.0000 264.0000 0000000   0.0000  84.0000 14.24551582    18
CTC2_L_00230023-04
1 46566U 24686ZH  26037.47792824  .00000000  00000+0  00000-0 0  9993
2 46566  80.0000 264.0000 0000000   0.0000 174.0000 14.24551582    19
CTC2_L_00230024-01
1 46567U 24332VB  26037.47792824  .00000000  00000+0  00000-0 0  9992
2 46567  80.0000 276.0000 0000000   0.0000 276.0000 14.24551582    16
CTC2_L_00230024-02
1 46568U 23187JH  26037.47792824  .00000000  00000+0  00000-0 0  9990
2 46568  80.0000 276.0000 0000000   0.0000   6.0000 14.24551582    18
CTC2_L_00230024-03
1 46569U 25155VP  26037.47792824  .00000000  00000+0  00000-0 0  9998
2 46569  80.0000 276.0000 0000000   0.0000  96.0000 14.24551582    18
CTC2_L_00230024-04
1 46570U 23516L   26037.47792824  .00000000  00000+0  00000-0 0  9999
2 46570  80.0000 276.0000 0000000   0.0000 186.0000 14.24551582    10
CTC2_L_00230025-01
1 46571U 26030TX  26037.47792824  .00000000  00000+0  00000-0 0  9994
2 46571  80.0000 288.0000 0000000   0.0000 288.0000 14.24551582    17
CTC2_L_00230025-02
1 46572U 25981YB  26037.47792824  .00000000  00000+0  00000-0 0  9999
2 46572  80.0000 288.0000 0000000   0.0000  18.0000 14.24551582    19
CTC2_L_00230025-03
1 46573U 26786D   26037.47792824  .00000000  00000+0  00000-0 0  9994
2 46573  80.0000 288.0000 0000000   0.0000 108.0000 14.24551582    10
CTC2_L_00230025-04
1 46574U 22506UQ  26037.47792824  .00000000  00000+0  00000-0 0  9991
2 46574  80.0000 288.0000 0000000   0.0000 198.0000 14.24551582    10
CTC2_L_00230026-01
1 46575U 25637QZ  26037.47792824  .00000000  00000+0  00000-0 0  9990
2 46575  80.0000 300.0000 0000000   0.0000 300.0000 14.24551582    11
CTC2_L_00230026-02
1 46576U 26457DT  26037.47792824  .00000000  00000+0  00000-0 0  9992
2 46576  80.0000 300.0000 0000000   0.0000  30.0000 14.24551582    12
CTC2_L_00230026-03
1 46577U 23893MP  26037.47792824  .00000000  00000+0  00000-0 0  9994
2 46577  80.0000 300.0000 0000000   0.0000 120.0000 14.24551582    13
CTC2_L_00230026-04
1 46578U 25995PH  26037.47792824  .00000000  00000+0  00000-0 0  9990
2 46578  80.0000 300.0000 0000000   0.0000 210.0000 14.24551582    14
CTC2_L_00230027-01
1 46579U 24414CI  26037.47792824  .00000000  00000+0  00000-0 0  9996
2 46579  80.0000 312.0000 0000000   0.0000 312.0000 14.24551582    11
CTC2_L_00230027-02
1 46580U 26969OO  26037.47792824  .00000000  00000+0  00000-0 0  9995
2 46580  80.0000 312.0000 0000000   0.0000  42.0000 14.24551582    13
CTC2_L_00230027-03
1 46581U 22570WW  26037.47792824  .00000000  00000+0  00000-0 0  9990
2 46581  80.0000 312.0000 0000000   0.0000 132.0000 14.24551582    14
CTC2_L_00230027-04
1 46582U 25896XV  26037.47792824  .00000000  00000+0  00000-0 0  9995
2 46582  80.0000 312.0000 0000000   0.0000 222.0000 14.24551582    15
CTC2_L_00230028-01
1 46583U 24620BP  26037.47792824  .00000000  00000+0  00000-0 0  9990
2 46583  80.0000 324.0000 0000000   0.0000 324.0000 14.24551582    12
CTC2_L_00230028-02
1 46584U 24023OV  26037.47792824  .00000000  00000+0  00000-0 0  9998
2 46584  80.0000 324.0000 0000000   0.0000  54.0000 14.24551582    13
CTC2_L_00230028-03
1 46585U 24947LM  26037.47792824  .00000000  00000+0  00000-0 0  9994
2 46585  80.0000 324.0000 0000000   0.0000 144.0000 14.24551582    14
CTC2_L_00230028-04
1 46586U 24634JB  26037.47792824  .00000000  00000+0  00000-0 0  9998
2 46586  80.0000 324.0000 0000000   0.0000 234.0000 14.24551582    15
CTC2_L_00230029-01
1 46587U 23356PV  26037.47792824  .00000000  00000+0  00000-0 0  9999
2 46587  80.0000 336.0000 0000000   0.0000 336.0000 14.24551582    12
CTC2_L_00230029-02
1 46588U 24147OP  26037.47792824  .00000000  00000+0  00000-0 0  9999
2 46588  80.0000 336.0000 0000000   0.0000  66.0000 14.24551582    13
CTC2_L_00230029-03
1 46589U 25773CA  26037.47792824  .00000000  00000+0  00000-0 0  9996
2 46589  80.0000 336.0000 0000000   0.0000 156.0000 14.24551582    14
CTC2_L_00230029-04
1 46590U 26205SD  26037.47792824  .00000000  00000+0  00000-0 0  9999
2 46590  80.0000 336.0000 0000000   0.0000 246.0000 14.24551582    16
CTC2_L_00230030-01
1 46591U 25613MO  26037.47792824  .00000000  00000+0  00000-0 0  9992
2 46591  80.0000 348.0000 0000000   0.0000 348.0000 14.24551582    13
CTC2_L_00230030-02
1 46592U 24236R   26037.47792824  .00000000  00000+0  00000-0 0  9993
2 46592  80.0000 348.0000 0000000   0.0000  78.0000 14.24551582    14
CTC2_L_00230030-03
1 46593U 25740Z   26037.47792824  .00000000  00000+0  00000-0 0  9995
2 46593  80.0000 348.0000 0000000   0.0000 168.0000 14.24551582    15
CTC2_L_00230030-04
1 46594U 25118RG  26037.47792824  .00000000  00000+0  00000-0 0  9995
2 46594  80.0000 348.0000 0000000   0.0000 258.0000 14.24551582    16
